start=new Date('2022-03-27T00:00:00.000Z').valueOf();
sats=[{"MEAN_MOTION":"15.06398966","MEAN_ELEMENT_THEORY":"SGP4","ECCENTRICITY":"0.00014570","ELEMENT_SET_NO":"999","NORAD_CAT_ID":"44754","PERIOD":"95.592","MEAN_MOTION_DOT":"0.00000038","RA_OF_ASC_NODE":"188.9962","DECAY_DATE":null,"REV_AT_EPOCH":"13110","ARG_OF_PERICENTER":"74.0164","TLE_LINE1":"1 44754U 19074AT  22085.69031293  .00000038  00000-0  21421-4 0  9990","RCS_SIZE":"LARGE","CENTER_NAME":"EARTH","SITE":"AFETR","REF_FRAME":"TEME","INCLINATION":"53.0559","EPOCH":"2022-03-26T16:34:03.037152","GP_ID":"199778465","OBJECT_NAME":"STARLINK-1049","MEAN_MOTION_DDOT":"0.0000000000000","OBJECT_TYPE":"PAYLOAD","APOAPSIS":"548.226","PERIAPSIS":"546.208","MEAN_ANOMALY":"286.0986","FILE":"3375650","BSTAR":"0.00002142100000","EPHEMERIS_TYPE":"0","SEMIMAJOR_AXIS":"6925.352","CLASSIFICATION_TYPE":"U","TIME_SYSTEM":"UTC","COUNTRY_CODE":"US","TLE_LINE2":"2 44754  53.0559 188.9962 0001457  74.0164 286.0986 15.06398966131103","LAUNCH_DATE":"2019-11-11","OBJECT_ID":"2019-074AT"},{"OBJECT_TYPE":"PAYLOAD","APOAPSIS":"224.477","PERIAPSIS":"212.762","MEAN_ANOMALY":"190.3014","EPHEMERIS_TYPE":"0","SEMIMAJOR_AXIS":"6596.755","BSTAR":"0.00378640000000","FILE":"3375644","COUNTRY_CODE":"US","CLASSIFICATION_TYPE":"U","TIME_SYSTEM":"UTC","TLE_LINE2":"2 44755  53.0323 192.1202 0008879 347.3572 190.3014 16.20344143131262","OBJECT_ID":"2019-074AU","LAUNCH_DATE":"2019-11-11","MEAN_MOTION":"16.20344143","ELEMENT_SET_NO":"999","ECCENTRICITY":"0.00088790","MEAN_ELEMENT_THEORY":"SGP4","ARG_OF_PERICENTER":"347.3572","TLE_LINE1":"1 44755U 19074AU  22086.02685938  .07789666  11925-4  37864-2 0  9996","RCS_SIZE":"LARGE","CENTER_NAME":"EARTH","NORAD_CAT_ID":"44755","MEAN_MOTION_DOT":"0.07789666","PERIOD":"88.870","RA_OF_ASC_NODE":"192.1202","DECAY_DATE":null,"REV_AT_EPOCH":"13126","EPOCH":"2022-03-27T00:38:40.650432","GP_ID":"199758100","OBJECT_NAME":"STARLINK-1050","MEAN_MOTION_DDOT":"0.0000119250000","REF_FRAME":"TEME","SITE":"AFETR","INCLINATION":"53.0323"},{"PERIOD":"95.591","MEAN_MOTION_DOT":"0.00014181","RA_OF_ASC_NODE":"208.3837","REV_AT_EPOCH":"13084","DECAY_DATE":null,"NORAD_CAT_ID":"44757","RCS_SIZE":"LARGE","CENTER_NAME":"EARTH","ARG_OF_PERICENTER":"54.7845","TLE_LINE1":"1 44757U 19074AW  22085.82484894  .00014181  00000-0  96860-3 0  9999","REF_FRAME":"TEME","SITE":"AFETR","INCLINATION":"53.0530","MEAN_MOTION_DDOT":"0.0000000000000","EPOCH":"2022-03-26T19:47:46.948416","GP_ID":"199776963","OBJECT_NAME":"STARLINK-1052","MEAN_MOTION":"15.06416271","MEAN_ELEMENT_THEORY":"SGP4","ECCENTRICITY":"0.00013280","ELEMENT_SET_NO":"999","TIME_SYSTEM":"UTC","CLASSIFICATION_TYPE":"U","COUNTRY_CODE":"US","TLE_LINE2":"2 44757  53.0530 208.3837 0001328  54.7845 305.3268 15.06416271130849","LAUNCH_DATE":"2019-11-11","OBJECT_ID":"2019-074AW","MEAN_ANOMALY":"305.3268","OBJECT_TYPE":"PAYLOAD","PERIAPSIS":"546.244","APOAPSIS":"548.083","BSTAR":"0.00096860000000","FILE":"3375650","EPHEMERIS_TYPE":"0","SEMIMAJOR_AXIS":"6925.299"},{"COUNTRY_CODE":"US","TIME_SYSTEM":"UTC","CLASSIFICATION_TYPE":"U","TLE_LINE2":"2 44758  53.0564 228.9438 0001479  66.7215 293.3929 15.06408567130550","OBJECT_ID":"2019-074AX","LAUNCH_DATE":"2019-11-11","MEAN_ANOMALY":"293.3929","OBJECT_TYPE":"PAYLOAD","APOAPSIS":"548.212","PERIAPSIS":"546.163","EPHEMERIS_TYPE":"0","SEMIMAJOR_AXIS":"6925.322","BSTAR":"-0.00024976000000","FILE":"3375650","RCS_SIZE":"LARGE","CENTER_NAME":"EARTH","ARG_OF_PERICENTER":"66.7215","TLE_LINE1":"1 44758U 19074AX  22085.70041691 -.00004001  00000-0 -24976-3 0  9992","MEAN_MOTION_DOT":"-0.00004001","PERIOD":"95.592","RA_OF_ASC_NODE":"228.9438","REV_AT_EPOCH":"13055","DECAY_DATE":null,"NORAD_CAT_ID":"44758","MEAN_MOTION_DDOT":"0.0000000000000","GP_ID":"199778215","EPOCH":"2022-03-26T16:48:36.021024","OBJECT_NAME":"STARLINK-1053","REF_FRAME":"TEME","SITE":"AFETR","INCLINATION":"53.0564","MEAN_MOTION":"15.06408567","ELEMENT_SET_NO":"999","MEAN_ELEMENT_THEORY":"SGP4","ECCENTRICITY":"0.00014790"},{"EPHEMERIS_TYPE":"0","SEMIMAJOR_AXIS":"6925.348","FILE":"3375650","BSTAR":"0.00005046800000","OBJECT_TYPE":"PAYLOAD","PERIAPSIS":"546.197","APOAPSIS":"548.229","MEAN_ANOMALY":"287.4236","TLE_LINE2":"2 44759  53.0534 228.9915 0001467  72.6914 287.4236 15.06400243128192","LAUNCH_DATE":"2019-11-11","OBJECT_ID":"2019-074AY","COUNTRY_CODE":"US","CLASSIFICATION_TYPE":"U","TIME_SYSTEM":"UTC","ELEMENT_SET_NO":"999","ECCENTRICITY":"0.00014670","MEAN_ELEMENT_THEORY":"SGP4","MEAN_MOTION":"15.06400243","EPOCH":"2022-03-26T16:34:02.458272","GP_ID":"199777965","OBJECT_NAME":"STARLINK-1054","MEAN_MOTION_DDOT":"0.0000000000000","REF_FRAME":"TEME","SITE":"AFETR","INCLINATION":"53.0534","ARG_OF_PERICENTER":"72.6914","TLE_LINE1":"1 44759U 19074AY  22085.69030623  .00000470  00000-0  50468-4 0  9994","RCS_SIZE":"LARGE","CENTER_NAME":"EARTH","NORAD_CAT_ID":"44759","PERIOD":"95.592","RA_OF_ASC_NODE":"228.9915","MEAN_MOTION_DOT":"0.00000470","REV_AT_EPOCH":"12819","DECAY_DATE":null},{"MEAN_MOTION_DOT":"-0.00000413","PERIOD":"95.593","RA_OF_ASC_NODE":"228.4496","DECAY_DATE":null,"REV_AT_EPOCH":"13057","NORAD_CAT_ID":"44760","RCS_SIZE":"LARGE","CENTER_NAME":"EARTH","ARG_OF_PERICENTER":"59.7934","TLE_LINE1":"1 44760U 19074AZ  22085.80826528 -.00000413  00000-0 -88364-5 0  9992","SITE":"AFETR","REF_FRAME":"TEME","INCLINATION":"53.0555","MEAN_MOTION_DDOT":"0.0000000000000","EPOCH":"2022-03-26T19:23:54.120192","GP_ID":"199776713","OBJECT_NAME":"STARLINK-1055","MEAN_MOTION":"15.06390511","MEAN_ELEMENT_THEORY":"SGP4","ECCENTRICITY":"0.00016280","ELEMENT_SET_NO":"999","TIME_SYSTEM":"UTC","CLASSIFICATION_TYPE":"U","COUNTRY_CODE":"US","TLE_LINE2":"2 44760  53.0555 228.4496 0001628  59.7934 300.3216 15.06390511130577","OBJECT_ID":"2019-074AZ","LAUNCH_DATE":"2019-11-11","MEAN_ANOMALY":"300.3216","OBJECT_TYPE":"PAYLOAD","PERIAPSIS":"546.115","APOAPSIS":"548.370","BSTAR":"-0.00000883640000","FILE":"3375650","EPHEMERIS_TYPE":"0","SEMIMAJOR_AXIS":"6925.378"},{"PERIAPSIS":"546.184","APOAPSIS":"548.261","OBJECT_TYPE":"PAYLOAD","MEAN_ANOMALY":"295.7179","SEMIMAJOR_AXIS":"6925.357","EPHEMERIS_TYPE":"0","BSTAR":"0.00001456200000","FILE":"3375650","COUNTRY_CODE":"US","CLASSIFICATION_TYPE":"U","TIME_SYSTEM":"UTC","OBJECT_ID":"2019-074BA","LAUNCH_DATE":"2019-11-11","TLE_LINE2":"2 44761  53.0549 228.4032 0001500  64.3965 295.7179 15.06397136130577","MEAN_MOTION":"15.06397136","ELEMENT_SET_NO":"999","ECCENTRICITY":"0.00015000","MEAN_ELEMENT_THEORY":"SGP4","TLE_LINE1":"1 44761U 19074BA  22085.81931184 -.00000065  00000-0  14562-4 0  9999","ARG_OF_PERICENTER":"64.3965","CENTER_NAME":"EARTH","RCS_SIZE":"LARGE","NORAD_CAT_ID":"44761","REV_AT_EPOCH":"13057","DECAY_DATE":null,"MEAN_MOTION_DOT":"-0.00000065","PERIOD":"95.592","RA_OF_ASC_NODE":"228.4032","OBJECT_NAME":"STARLINK-1056","EPOCH":"2022-03-26T19:39:48.542976","GP_ID":"199777464","MEAN_MOTION_DDOT":"0.0000000000000","INCLINATION":"53.0549","REF_FRAME":"TEME","SITE":"AFETR"},{"NORAD_CAT_ID":"44762","MEAN_MOTION_DOT":"-0.00001681","PERIOD":"95.592","RA_OF_ASC_NODE":"208.3821","DECAY_DATE":null,"REV_AT_EPOCH":"13084","ARG_OF_PERICENTER":"55.4416","TLE_LINE1":"1 44762U 19074BB  22085.82115259 -.00001681  00000-0 -93992-4 0  9998","RCS_SIZE":"LARGE","CENTER_NAME":"EARTH","SITE":"AFETR","REF_FRAME":"TEME","INCLINATION":"53.0546","GP_ID":"199777715","EPOCH":"2022-03-26T19:42:27.583776","OBJECT_NAME":"STARLINK-1057","MEAN_MOTION_DDOT":"0.0000000000000","MEAN_MOTION":"15.06397405","ECCENTRICITY":"0.00018720","MEAN_ELEMENT_THEORY":"SGP4","ELEMENT_SET_NO":"999","CLASSIFICATION_TYPE":"U","TIME_SYSTEM":"UTC","COUNTRY_CODE":"US","TLE_LINE2":"2 44762  53.0546 208.3821 0001872  55.4416 304.6749 15.06397405130844","OBJECT_ID":"2019-074BB","LAUNCH_DATE":"2019-11-11","OBJECT_TYPE":"PAYLOAD","PERIAPSIS":"545.925","APOAPSIS":"548.518","MEAN_ANOMALY":"304.6749","FILE":"3375650","BSTAR":"-0.00009399200000","EPHEMERIS_TYPE":"0","SEMIMAJOR_AXIS":"6925.357"},{"MEAN_ANOMALY":"297.0189","APOAPSIS":"548.317","PERIAPSIS":"546.132","OBJECT_TYPE":"PAYLOAD","SEMIMAJOR_AXIS":"6925.360","EPHEMERIS_TYPE":"0","FILE":"3375650","BSTAR":"0.00004964000000","COUNTRY_CODE":"US","TIME_SYSTEM":"UTC","CLASSIFICATION_TYPE":"U","LAUNCH_DATE":"2019-11-11","OBJECT_ID":"2019-074BC","TLE_LINE2":"2 44763  53.0559 228.6169 0001578  63.0962 297.0189 15.06396425130566","MEAN_MOTION":"15.06396425","ELEMENT_SET_NO":"999","MEAN_ELEMENT_THEORY":"SGP4","ECCENTRICITY":"0.00015780","CENTER_NAME":"EARTH","RCS_SIZE":"LARGE","TLE_LINE1":"1 44763U 19074BC  22085.77508558  .00000458  00000-0  49640-4 0  9991","ARG_OF_PERICENTER":"63.0962","DECAY_DATE":null,"REV_AT_EPOCH":"13056","PERIOD":"95.592","RA_OF_ASC_NODE":"228.6169","MEAN_MOTION_DOT":"0.00000458","NORAD_CAT_ID":"44763","MEAN_MOTION_DDOT":"0.0000000000000","OBJECT_NAME":"STARLINK-1058","GP_ID":"199778466","EPOCH":"2022-03-26T18:36:07.394112","INCLINATION":"53.0559","REF_FRAME":"TEME","SITE":"AFETR"},{"MEAN_ANOMALY":"302.6636","OBJECT_TYPE":"PAYLOAD","PERIAPSIS":"546.242","APOAPSIS":"548.215","EPHEMERIS_TYPE":"0","SEMIMAJOR_AXIS":"6925.364","FILE":"3375254","BSTAR":"-0.00008716800000","COUNTRY_CODE":"US","TIME_SYSTEM":"UTC","CLASSIFICATION_TYPE":"U","TLE_LINE2":"2 44764  53.0551 209.3107 0001424  57.4491 302.6636 15.06395113130812","OBJECT_ID":"2019-074BD","LAUNCH_DATE":"2019-11-11","MEAN_MOTION":"15.06395113","ELEMENT_SET_NO":"999","MEAN_ELEMENT_THEORY":"SGP4","ECCENTRICITY":"0.00014240","RCS_SIZE":"LARGE","CENTER_NAME":"EARTH","ARG_OF_PERICENTER":"57.4491","TLE_LINE1":"1 44764U 19074BD  22085.61843217 -.00001579  00000-0 -87168-4 0  9993","MEAN_MOTION_DOT":"-0.00001579","PERIOD":"95.592","RA_OF_ASC_NODE":"209.3107","REV_AT_EPOCH":"13081","DECAY_DATE":null,"NORAD_CAT_ID":"44764","MEAN_MOTION_DDOT":"0.0000000000000","GP_ID":"199743268","EPOCH":"2022-03-26T14:50:32.539488","OBJECT_NAME":"STARLINK-1059","REF_FRAME":"TEME","SITE":"AFETR","INCLINATION":"53.0551"}];
